NORAD_CAT_ID,OBJECT_NAME,OBJECT_TYPE,EPOCH,MEAN_MOTION,ECCENTRICITY,INCLINATION,RA_OF_ASC_NODE,ARG_OF_PERICENTER,MEAN_ANOMALY,BSTAR,MEAN_MOTION_DOT,MEAN_MOTION_DDOT,TLE_LINE0,TLE_LINE1,TLE_LINE2,SEMIMAJOR_AXIS,PERIOD,APOGEE,PERIGEE,DECAYED
54076.0,STARLINK-5201,PAYLOAD,2024-07-15 04:30:40,15.08214622,0.0001897,53.2167,169.0555,90.7618,269.3591,0.0066161,0.0010477,0.0,0 STARLINK-5201,1 54076U 22136AB  24197.18796825  .00104770  00000-0  66161-2 0  9996,2 54076  53.2167 169.0555 0001897  90.7618 269.3591 15.08214622 96365,6919.793,95.477,542.97,540.345,0.0
54076.0,STARLINK-5201,PAYLOAD,2024-07-15 14:00:01,15.0885108,0.0001616,53.2146,167.2862,89.1723,258.6729,-0.0013418,-0.00021586,0.0,0 STARLINK-5201,1 54076U 22136AB  24197.58334491 -.00021586  00000-0 -13418-2 0  9999,2 54076  53.2146 167.2862 0001616  89.1723 258.6729 15.08851080 96427,6917.847,95.437,540.829,538.594,0.0
54076.0,STARLINK-5201,PAYLOAD,2024-07-15 22:00:00,15.08846025,0.0001686,53.2149,165.7889,97.2563,262.1918,0.0023997,0.00038117,0.0,0 STARLINK-5201,1 54076U 22136AB  24197.91667824  .00038117  00000-0  23997-2 0  9994,2 54076  53.2149 165.7889 0001686  97.2563 262.1918 15.08846025  5851,6917.862,95.437,540.893,538.561,0.0
54076.0,STARLINK-5201,PAYLOAD,2024-07-16 06:00:02,15.08872253,0.0001713,53.2149,164.2942,92.6167,278.5131,-0.0045615,-0.00072221,0.0,0 STARLINK-5201,1 54076U 22136AB  24198.25002315 -.00072221  00000-0 -45615-2 0  9997,2 54076  53.2149 164.2942 0001713  92.6167 278.5131 15.08872253 96529,6917.782,95.436,540.832,538.462,0.0
54076.0,STARLINK-5201,PAYLOAD,2024-07-16 14:00:01,15.08825878,0.0001651,53.2149,162.7967,81.5087,301.1559,-0.0005598,-9.183e-05,0.0,0 STARLINK-5201,1 54076U 22136AB  24198.58334491 -.00009183  00000-0 -55980-3 0  9990,2 54076  53.2149 162.7967 0001651  81.5087 301.1559 15.08825878  5852,6917.924,95.438,540.931,538.646,0.0
54076.0,STARLINK-5201,PAYLOAD,2024-07-16 22:00:00,15.08837051,0.0001674,53.2152,161.2998,89.0826,305.1585,0.0019715,0.00031225,0.0,0 STARLINK-5201,1 54076U 22136AB  24198.91667824  .00031225  00000-0  19715-2 0  9991,2 54076  53.2152 161.2998 0001674  89.0826 305.1585 15.08837051 96627,6917.889,95.438,540.912,538.596,0.0
54076.0,STARLINK-5201,PAYLOAD,2024-07-17 06:00:00,15.0883921,0.0001706,53.2152,159.8051,85.1584,320.6916,-0.0019602,-0.00031349,0.0,0 STARLINK-5201,1 54076U 22136AB  24199.25001157 -.00031349  00000-0 -19602-2 0  9994,2 54076  53.2152 159.8051 0001706  85.1584 320.6916 15.08839210 96678,6917.883,95.438,540.928,538.568,0.0
54076.0,STARLINK-5201,PAYLOAD,2024-07-17 14:00:01,15.08833332,0.0001633,53.2152,158.3075,91.6676,325.7591,-0.00015722,-2.789e-05,0.0,0 STARLINK-5201,1 54076U 22136AB  24199.58334491 -.00002789  00000-0 -15722-3 0  9996,2 54076  53.2152 158.3075 0001633  91.6676 325.7591 15.08833332  5798,6917.901,95.438,540.895,538.636,0.0
54076.0,STARLINK-5201,PAYLOAD,2024-07-17 22:00:00,15.08847704,0.0001622,53.2154,156.8108,97.8479,331.1583,0.0014696,0.00023183,0.0,0 STARLINK-5201,1 54076U 22136AB  24199.91667824  .00023183  00000-0  14696-2 0  9999,2 54076  53.2154 156.8108 0001622  97.8479 331.1583 15.08847704 96775,6917.857,95.437,540.844,538.6,0.0
54076.0,STARLINK-5201,PAYLOAD,2024-07-18 14:00:01,15.08822255,0.0001353,53.2154,153.8183,94.6653,357.5448,0.00027004,4.01e-05,0.0,0 STARLINK-5201,1 54076U 22136AB  24200.58334491  .00004010  00000-0  27004-3 0  9992,2 54076  53.2154 153.8183 0001353  94.6653 357.5448 15.08822255 96883,6917.935,95.439,540.736,538.864,0.0
54076.0,STARLINK-5201,PAYLOAD,2024-07-18 22:00:01,15.08841098,0.0001345,53.2156,152.3217,97.9241,5.9188,0.0012315,0.00019366,0.0,0 STARLINK-5201,1 54076U 22136AB  24200.91668981  .00019366  00000-0  12315-2 0  9991,2 54076  53.2156 152.3217 0001345  97.9241   5.9188 15.08841098  5800,6917.877,95.437,540.672,538.812,0.0
54076.0,STARLINK-5201,PAYLOAD,2024-07-19 05:29:28,15.0883797,0.0001721,53.2185,150.9218,104.2013,255.917,6.9098e-05,8.12e-06,0.0,0 STARLINK-5201,1 54076U 22136AB  24201.22880228  .00000812  00000-0  69098-4 0  9994,2 54076  53.2185 150.9218 0001721 104.2013 255.9170 15.08837970 96974,6917.887,95.438,540.942,538.561,0.0
54076.0,STARLINK-5201,PAYLOAD,2024-07-19 13:26:24,15.08836083,0.0001674,53.2186,149.4353,100.2941,259.824,5.6985e-05,6.19e-06,0.0,0 STARLINK-5201,1 54076U 22136AB  24201.56000425  .00000619  00000-0  56985-4 0  9990,2 54076  53.2186 149.4353 0001674 100.2941 259.8240 15.08836083 96549,6917.892,95.438,540.915,538.599,0.0
54076.0,STARLINK-5201,PAYLOAD,2024-07-20 05:20:15,15.08844748,0.0001698,53.2186,146.4638,95.3423,264.7763,4.5864e-05,4.42e-06,0.0,0 STARLINK-5201,1 54076U 22136AB  24202.22240196  .00000442  00000-0  45864-4 0  9993,2 54076  53.2186 146.4638 0001698  95.3423 264.7763 15.08844748 96640,6917.866,95.437,540.906,538.556,0.0
54076.0,STARLINK-5201,PAYLOAD,2024-07-21 05:11:01,15.08852417,0.0001301,53.2173,142.0011,102.8952,257.2186,0.00013322,1.834e-05,0.0,0 STARLINK-5201,1 54076U 22136AB  24203.21599469  .00001834  00000-0  13322-3 0  9992,2 54076  53.2173 142.0011 0001301 102.8952 257.2186 15.08852417 97273,6917.842,95.437,540.607,538.807,0.0
54076.0,STARLINK-5201,PAYLOAD,2024-07-22 03:26:26,15.0884617,0.0001469,53.2176,137.8354,87.4448,272.6712,2.1567e-05,5.5e-07,0.0,0 STARLINK-5201,1 54076U 22136AB  24204.14336411  .00000055  00000-0  21567-4 0  9996,2 54076  53.2176 137.8354 0001469  87.4448 272.6712 15.08846170 97412,6917.862,95.437,540.743,538.71,0.0
54076.0,STARLINK-5201,PAYLOAD,2024-07-23 12:49:32,15.08850826,0.0001578,53.2163,131.5997,76.693,283.4238,-2.9408e-05,-7.56e-06,0.0,0 STARLINK-5201,1 54076U 22136AB  24205.53439929 -.00000756  00000-0 -29408-4 0  9990,2 54076  53.2163 131.5997 0001578  76.6930 283.4238 15.08850826 97628,6917.847,95.437,540.804,538.621,0.0
54076.0,STARLINK-5201,PAYLOAD,2024-07-23 19:11:05,15.08839149,0.0001792,53.2172,130.4012,112.3746,247.7436,-5.1907e-05,-1.114e-05,0.0,0 STARLINK-5201,1 54076U 22136AB  24205.79936941 -.00001114  00000-0 -51907-4 0  9992,2 54076  53.2172 130.4012 0001792 112.3746 247.7436 15.08839149 97667,6917.883,95.438,540.988,538.508,0.0
54076.0,STARLINK-5201,PAYLOAD,2024-07-23 22:21:51,15.08836413,0.0001805,53.2172,129.8052,117.7532,242.3643,-3.8888e-05,-9.07e-06,0.0,0 STARLINK-5201,1 54076U 22136AB  24205.93185058 -.00000907  00000-0 -38888-4 0  9995,2 54076  53.2172 129.8052 0001805 117.7532 242.3643 15.08836413 97202,6917.891,95.438,541.005,538.508,0.0
54076.0,STARLINK-5201,PAYLOAD,2024-07-24 04:43:24,15.0883584,0.0001673,53.218,128.6174,117.7501,242.3661,-7.3047e-05,-1.45e-05,0.0,0 STARLINK-5201,1 54076U 22136AB  24206.19681215 -.00001450  00000-0 -73047-4 0  9990,2 54076  53.2180 128.6174 0001673 117.7501 242.3661 15.08835840 97249,6917.893,95.438,540.915,538.601,0.0
54076.0,STARLINK-5201,PAYLOAD,2024-07-24 19:01:52,15.08857705,0.0002082,53.2179,125.9421,138.9831,221.1318,-0.00017592,-3.088e-05,0.0,0 STARLINK-5201,1 54076U 22136AB  24206.79296478 -.00003088  00000-0 -17592-3 0  9990,2 54076  53.2179 125.9421 0002082 138.9831 221.1318 15.08857705 97819,6917.826,95.436,541.132,538.251,0.0
54076.0,STARLINK-5201,PAYLOAD,2024-07-24 22:12:38,15.08852309,0.0001494,53.2173,125.3478,114.8028,245.312,-6.7507e-06,-3.95e-06,0.0,0 STARLINK-5201,1 54076U 22136AB  24206.92544172 -.00000395  00000-0 -67507-5 0  9993,2 54076  53.2173 125.3478 0001494 114.8028 245.3120 15.08852309 97359,6917.843,95.437,540.741,538.674,0.0
54076.0,STARLINK-5201,PAYLOAD,2024-07-25 04:34:09,15.08863056,0.0002116,53.2175,124.1573,139.464,220.651,-2.4061e-05,-6.71e-06,0.0,0 STARLINK-5201,1 54076U 22136AB  24207.19039219 -.00000671  00000-0 -24061-4 0  9998,2 54076  53.2175 124.1573 0002116 139.4640 220.6510 15.08863056 97876,6917.81,95.436,541.139,538.211,0.0
54076.0,STARLINK-5201,PAYLOAD,2024-07-25 18:52:40,15.08825913,0.0001119,53.2175,121.4822,110.7043,249.4069,8.7036e-05,1.097e-05,0.0,0 STARLINK-5201,1 54076U 22136AB  24207.78657619  .00001097  00000-0  87036-4 0  9995,2 54076  53.2175 121.4822 0001119 110.7043 249.4069 15.08825913 97962,6917.923,95.438,540.563,539.014,0.0
54076.0,STARLINK-5201,PAYLOAD,2024-07-25 22:03:26,15.08831913,0.0001983,53.2159,120.8811,131.338,228.7783,9.7676e-05,1.266e-05,0.0,0 STARLINK-5201,1 54076U 22136AB  24207.91905115  .00001266  00000-0  97676-4 0  9996,2 54076  53.2159 120.8811 0001983 131.3380 228.7783 15.08831913 97507,6917.905,95.438,541.142,538.398,0.0
54076.0,STARLINK-5201,PAYLOAD,2024-07-26 04:24:58,15.0883574,0.0001168,53.2167,119.698,99.5884,260.524,0.00012574,1.714e-05,0.0,0 STARLINK-5201,1 54076U 22136AB  24208.18401133  .00001714  00000-0  12574-3 0  9998,2 54076  53.2167 119.6980 0001168  99.5884 260.5240 15.08835740 98020,6917.893,95.438,540.566,538.95,0.0
54076.0,STARLINK-5201,PAYLOAD,2024-07-26 10:46:30,15.08839361,0.0001169,53.2165,118.5092,103.0056,257.1066,0.00010669,1.411e-05,0.0,0 STARLINK-5201,1 54076U 22136AB  24208.44896983  .00001411  00000-0  10669-3 0  9995,2 54076  53.2165 118.5092 0001169 103.0056 257.1066 15.08839361 97584,6917.882,95.438,540.556,538.939,0.0
54076.0,STARLINK-5201,PAYLOAD,2024-07-27 21:45:00,15.08830993,0.0001199,53.2173,111.9676,91.0483,269.0646,3.1579e-05,2.15e-06,0.0,0 STARLINK-5201,1 54076U 22136AB  24209.90626147  .00000215  00000-0  31579-4 0  9995,2 54076  53.2173 111.9676 0001199  91.0483 269.0646 15.08830993 97804,6917.908,95.438,540.602,538.943,0.0
54076.0,STARLINK-5201,PAYLOAD,2024-07-28 00:55:47,15.08831767,0.0001194,53.2168,111.3728,87.6473,272.4656,4.9709e-05,5.03e-06,0.0,0 STARLINK-5201,1 54076U 22136AB  24210.03874092  .00000503  00000-0  49709-4 0  9999,2 54076  53.2168 111.3728 0001194  87.6473 272.4656 15.08831767 98300,6917.906,95.438,540.597,538.945,0.0
54076.0,STARLINK-5201,PAYLOAD,2024-07-28 21:35:47,15.08838351,0.0001356,53.2164,107.5064,87.6249,272.4899,0.00010531,1.388e-05,0.0,0 STARLINK-5201,1 54076U 22136AB  24210.89985822  .00001388  00000-0  10531-3 0  9999,2 54076  53.2164 107.5064 0001356  87.6249 272.4899 15.08838351 98436,6917.885,95.438,540.688,538.812,0.0
